NOAA 15                 
1 25338U 98030A   22363.52778657  .00000138  00000+0  75831-4 0  9993
2 25338  98.6255  30.3298 0011431  89.3908 270.8582 14.26213834280826
NOAA 18                 
1 28654U 05018A   22363.46159613  .00000205  00000+0  13417-3 0  9995
2 28654  98.9301  73.5527 0015007 138.1097 222.1226 14.12829493907600
NOAA 19                 
1 33591U 09005A   22363.48526903  .00000164  00000+0  11329-3 0  9997
2 33591  99.1254  41.5027 0013865   4.2722 355.8565 14.12658118715986
METOP-B                 
1 38771U 12049A   22363.47436837  .00000099  00000+0  65452-4 0  9993
2 38771  98.7049  60.4794 0001280 127.0266 358.9266 14.21489696533437
SARAL                   
1 39086U 13009A   22363.53684909  .00000097  00000+0  52451-4 0  9995
2 39086  98.5446 186.3090 0001992  74.7269 285.4135 14.32058996514406
METOP-C                 
1 43689U 18087A   22363.48632202  .00000105  00000+0  68178-4 0  9996
2 43689  98.7095  60.5420 0003244 175.0391 185.0819 14.21495556215019
ANGELS                  
1 44876U 19092D   22362.80388272  .00003378  00000+0  16397-3 0  9992
2 44876  97.4731 183.9433 0012918  46.5130 313.7176 15.19090702167739
GAZELLE                 
1 54023U 22127A   22363.47497981 -.00000043  00000+0  00000+0 0  9999
2 54023  98.3163   0.6793 0014530  50.7476 309.4950 14.41672696 11922
EOS-6 (OCEANSAT-3)      
1 54361U 22158A   22363.38857043  .00000385  00000+0  11790-3 0  9997
2 54361  98.3532  97.6851 0001417 115.4969 244.6403 14.46988291  4789
